{
  "type": "FeatureCollection",
  "features": [
    {
      "type": "Feature",
      "properties": {
        "norad_id": 34556,
        "name": "COSMOS 2251 DEB",
        "group": "cosmos-2251-debris",
        "lat": 36.89949150283842,
        "lon": -85.18476985880709,
        "alt_km": 628.274584461743,
        "timestamp": "2025-12-21T16:47:55.133503+00:00",
        "meta_object_name": "COSMOS 2251 DEB",
        "meta_object_id": "1993-036US",
        "meta_epoch": "2025-12-20T17:58:02.520192",
        "meta_mean_motion": 14.78025681,
        "meta_eccentricity": 0.00068003,
        "meta_inclination": 74.0159,
        "meta_ra_of_asc_node": 109.1125,
        "meta_arg_of_pericenter": 169.8839,
        "meta_mean_anomaly": 311.7101,
        "meta_ephemeris_type": 0,
        "meta_classification_type": "U",
        "meta_norad_cat_id": 34556,
        "meta_element_set_no": 999,
        "meta_rev_at_epoch": 88447,
        "meta_bstar": 0.0013550836,
        "meta_mean_motion_dot": 9.769e-05,
        "meta_mean_motion_ddot": 0,
        "tle_line1": "1 34556U 93036US  25354.74864028  .00009769  00000+0  13551-2 0  9999",
        "tle_line2": "2 34556  74.0159 109.1125 0006800 169.8839 311.7101 14.78025681884475"
      },
      "geometry": {
        "type": "Point",
        "coordinates": [
          -85.18476985880709,
          36.89949150283842
        ]
      }
    },
    {
      "type": "Feature",
      "properties": {
        "norad_id": 34560,
        "name": "COSMOS 2251 DEB",
        "group": "cosmos-2251-debris",
        "lat": -30.204128610333214,
        "lon": -45.717530739103175,
        "alt_km": 649.3930541678883,
        "timestamp": "2025-12-21T16:47:55.133513+00:00",
        "meta_object_name": "COSMOS 2251 DEB",
        "meta_object_id": "1993-036UW",
        "meta_epoch": "2025-12-21T09:34:44.023296",
        "meta_mean_motion": 14.7233853,
        "meta_eccentricity": 0.0014019,
        "meta_inclination": 74.0171,
        "meta_ra_of_asc_node": 125.2641,
        "meta_arg_of_pericenter": 207.4959,
        "meta_mean_anomaly": 210.1131,
        "meta_ephemeris_type": 0,
        "meta_classification_type": "U",
        "meta_norad_cat_id": 34560,
        "meta_element_set_no": 999,
        "meta_rev_at_epoch": 88379,
        "meta_bstar": 0.0016006,
        "meta_mean_motion_dot": 0.00010125,
        "meta_mean_motion_ddot": 0,
        "tle_line1": "1 34560U 93036UW  25355.39912064  .00010125  00000+0  16006-2 0  9996",
        "tle_line2": "2 34560  74.0171 125.2641 0014019 207.4959 210.1131 14.72338530883792"
      },
      "geometry": {
        "type": "Point",
        "coordinates": [
          -45.717530739103175,
          -30.204128610333214
        ]
      }
    },
    {
      "type": "Feature",
      "properties": {
        "norad_id": 34563,
        "name": "COSMOS 2251 DEB",
        "group": "cosmos-2251-debris",
        "lat": -44.928569267127834,
        "lon": 23.570064315944528,
        "alt_km": 737.4308957551684,
        "timestamp": "2025-12-21T16:47:55.133523+00:00",
        "meta_object_name": "COSMOS 2251 DEB",
        "meta_object_id": "1993-036UZ",
        "meta_epoch": "2025-12-21T12:34:03.901728",
        "meta_mean_motion": 14.46534842,
        "meta_eccentricity": 0.0013914,
        "meta_inclination": 74.0367,
        "meta_ra_of_asc_node": 187.3088,
        "meta_arg_of_pericenter": 280.8759,
        "meta_mean_anomaly": 108.7913,
        "meta_ephemeris_type": 0,
        "meta_classification_type": "U",
        "meta_norad_cat_id": 34563,
        "meta_element_set_no": 999,
        "meta_rev_at_epoch": 88324,
        "meta_bstar": 0.00033066,
        "meta_mean_motion_dot": 1.166e-05,
        "meta_mean_motion_ddot": 0,
        "tle_line1": "1 34563U 93036UZ  25355.52365627  .00001166  00000+0  33066-3 0  9992",
        "tle_line2": "2 34563  74.0367 187.3088 0013914 280.8759 108.7913 14.46534842883247"
      },
      "geometry": {
        "type": "Point",
        "coordinates": [
          23.570064315944528,
          -44.928569267127834
        ]
      }
    },
    {
      "type": "Feature",
      "properties": {
        "norad_id": 34564,
        "name": "COSMOS 2251 DEB",
        "group": "cosmos-2251-debris",
        "lat": 1.5054766455784243,
        "lon": 41.00340833225236,
        "alt_km": 769.9690663803522,
        "timestamp": "2025-12-21T16:47:55.133533+00:00",
        "meta_object_name": "COSMOS 2251 DEB",
        "meta_object_id": "1993-036VA",
        "meta_epoch": "2025-12-21T01:40:16.342176",
        "meta_mean_motion": 14.40703135,
        "meta_eccentricity": 0.00193185,
        "meta_inclination": 74.0316,
        "meta_ra_of_asc_node": 222.6004,
        "meta_arg_of_pericenter": 325.3273,
        "meta_mean_anomaly": 185.3128,
        "meta_ephemeris_type": 0,
        "meta_classification_type": "U",
        "meta_norad_cat_id": 34564,
        "meta_element_set_no": 999,
        "meta_rev_at_epoch": 88126,
        "meta_bstar": 0.00017237979,
        "meta_mean_motion_dot": 5.25e-06,
        "meta_mean_motion_ddot": 0,
        "tle_line1": "1 34564U 93036VA  25355.06963359  .00000525  00000+0  17238-3 0  9999",
        "tle_line2": "2 34564  74.0316 222.6004 0019318 325.3273 185.3128 14.40703135881269"
      },
      "geometry": {
        "type": "Point",
        "coordinates": [
          41.00340833225236,
          1.5054766455784243
        ]
      }
    },
    {
      "type": "Feature",
      "properties": {
        "norad_id": 34567,
        "name": "COSMOS 2251 DEB",
        "group": "cosmos-2251-debris",
        "lat": 44.43154190774345,
        "lon": 156.94576833650368,
        "alt_km": 859.4183656725918,
        "timestamp": "2025-12-21T16:47:55.133543+00:00",
        "meta_object_name": "COSMOS 2251 DEB",
        "meta_object_id": "1993-036VD",
        "meta_epoch": "2025-12-21T09:58:43.315104",
        "meta_mean_motion": 14.24025588,
        "meta_eccentricity": 0.0074197,
        "meta_inclination": 74.0408,
        "meta_ra_of_asc_node": 141.1649,
        "meta_arg_of_pericenter": 213.5588,
        "meta_mean_anomaly": 177.2622,
        "meta_ephemeris_type": 0,
        "meta_classification_type": "U",
        "meta_norad_cat_id": 34567,
        "meta_element_set_no": 999,
        "meta_rev_at_epoch": 87248,
        "meta_bstar": 0.00018913,
        "meta_mean_motion_dot": 4.21e-06,
        "meta_mean_motion_ddot": 0,
        "tle_line1": "1 34567U 93036VD  25355.41577911  .00000421  00000+0  18913-3 0  9992",
        "tle_line2": "2 34567  74.0408 141.1649 0074197 213.5588 177.2622 14.24025588872481"
      },
      "geometry": {
        "type": "Point",
        "coordinates": [
          156.94576833650368,
          44.43154190774345
        ]
      }
    },
    {
      "type": "Feature",
      "properties": {
        "norad_id": 34569,
        "name": "COSMOS 2251 DEB",
        "group": "cosmos-2251-debris",
        "lat": -52.81309874600722,
        "lon": 24.172519540470198,
        "alt_km": 891.2746368353964,
        "timestamp": "2025-12-21T16:47:55.133553+00:00",
        "meta_object_name": "COSMOS 2251 DEB",
        "meta_object_id": "1993-036VF",
        "meta_epoch": "2025-12-21T07:31:30.980064",
        "meta_mean_motion": 14.24772828,
        "meta_eccentricity": 0.0157699,
        "meta_inclination": 73.9894,
        "meta_ra_of_asc_node": 182.6328,
        "meta_arg_of_pericenter": 9.0645,
        "meta_mean_anomaly": 47.1114,
        "meta_ephemeris_type": 0,
        "meta_classification_type": "U",
        "meta_norad_cat_id": 34569,
        "meta_element_set_no": 999,
        "meta_rev_at_epoch": 87090,
        "meta_bstar": 0.00035959,
        "meta_mean_motion_dot": 9.27e-06,
        "meta_mean_motion_ddot": 0,
        "tle_line1": "1 34569U 93036VF  25355.31355301  .00000927  00000+0  35959-3 0  9990",
        "tle_line2": "2 34569  73.9894 182.6328 0157699   9.0645  47.1114 14.24772828870907"
      },
      "geometry": {
        "type": "Point",
        "coordinates": [
          24.172519540470198,
          -52.81309874600722
        ]
      }
    },
    {
      "type": "Feature",
      "properties": {
        "norad_id": 34570,
        "name": "COSMOS 2251 DEB",
        "group": "cosmos-2251-debris",
        "lat": 72.97314940254543,
        "lon": -87.31769105121334,
        "alt_km": 748.6242504217817,
        "timestamp": "2025-12-21T16:47:55.133563+00:00",
        "meta_object_name": "COSMOS 2251 DEB",
        "meta_object_id": "1993-036VG",
        "meta_epoch": "2025-12-21T06:41:00.076704",
        "meta_mean_motion": 13.99833504,
        "meta_eccentricity": 0.0190292,
        "meta_inclination": 73.9568,
        "meta_ra_of_asc_node": 203.4332,
        "meta_arg_of_pericenter": 84.0165,
        "meta_mean_anomaly": 37.063,
        "meta_ephemeris_type": 0,
        "meta_classification_type": "U",
        "meta_norad_cat_id": 34570,
        "meta_element_set_no": 999,
        "meta_rev_at_epoch": 85720,
        "meta_bstar": 0.00041501,
        "meta_mean_motion_dot": 6.89e-06,
        "meta_mean_motion_ddot": 0,
        "tle_line1": "1 34570U 93036VG  25355.27847311  .00000689  00000+0  41501-3 0  9999",
        "tle_line2": "2 34570  73.9568 203.4332 0190292  84.0165  37.0630 13.99833504857209"
      },
      "geometry": {
        "type": "Point",
        "coordinates": [
          -87.31769105121334,
          72.97314940254543
        ]
      }
    }
  ]
}